C/2019 B3 (PANSTARRS),h,01/19.7014/2021,66.5363,358.4209,263.8857,1.002897,6.823824,2000,5.5,4.0
# From MPEC 2020-AA5
A/2019 C1,e,36.0176,212.3956,319.1943,816.5092,0.0000422,0.99193983,0.0000,05/05.7611/2020,2000,g 10.0,4.0
# From MPC118842
C/2019 D1 (Flewelling),e,34.0937,231.7197,70.4950,139.6789,0.0005970,0.98870309,0.0000,05/11.8681/2019,2000,g 13.0,4.0
# From MPC119997
C/2019 E3 (ATLAS),h,11/11.8446/2023,84.2830,347.2279,280.5915,1.004774,10.315783,2000,2.5,4.0
# From MPC119997
C/2019 F1 (ATLAS-Africano),h,06/22.7512/2021,54.1745,38.7259,251.1056,1.003465,3.596120,2000,5.5,4.0
# From MPC119997
C/2019 F2 (ATLAS),e,19.1868,175.8448,11.0145,16.61788,0.0145492,0.86560149,3.8847,06/02.0/2020,2000,g 12.0,4.0
# From MPEC 2020-AA5
A/2019 G2,e,159.2109,208.1478,82.6511,723.3440,0.0000507,0.99683237,0.0000,12/10.0521/2019,2000,g 16.5,2.0
# From MPC118094
A/2019 G4,h,09/15.8444/2018,138.3846,130.4650,287.8823,1.000902,5.858846,2000,13.0,2.0
# From MPC114607
P/2019 GG21 (PANSTARRS),e,6.0837,340.5960,208.3840,7.467901,0.0482955,0.47295677,18.7719,06/02.0/2020,2000,g 12.0,4.0
# From MPC115885
C/2019 H1 (NEOWISE),e,104.5788,269.1862,19.2968,228.9440,0.0002845,0.99194024,0.0000,04/27.7497/2019,2000,g 15.5,4.0
# From MPC118842
C/2019 J1 (Lemmon),e,24.5504,98.0873,167.7784,70.09153,0.0016796,0.96463665,0.7050,06/02.0/2020,2000,g 12.0,4.0
# From MPC115885
C/2019 J2 (Palomar),e,105.1369,25.4717,98.7092,679.4287,0.0000557,0.99745804,0.0000,07/19.7141/2019,2000,g 13.0,4.0
# From MPC117071
C/2019 J3 (ATLAS),e,131.4138,270.5176,16.5552,62478,0.0000001,0.99996201,0.0000,08/01.8840/2019,2000,g 13.5,4.0
# From MPC117071
C/2019 JU6 (ATLAS),e,148.2945,21.7368,94.8750,328.3742,0.0001656,0.99377202,0.0000,05/31.8600/2019,2000,g 14.5,4.0
# From MPC119997
C/2019 K1 (ATLAS),e,87.1494,73.3752,265.7084,17516,0.0000004,0.99988510,0.0000,02/12.9680/2020,2000,g 10.0,4.0
# From MPC119997
C/2019 K4 (Ye),e,105.3034,180.1649,139.7735,1895,0.0000119,0.99880752,0.0000,06/16.3982/2019,2000,g 12.5,4.0
# From MPC119997
C/2019 K5 (Young),e,15.3145,177.1789,174.9348,154.3127,0.0005142,0.98681173,0.0000,06/22.7882/2019,2000,g 13.0,4.0
# From MPC117071
A/2019 K6,e,132.3734,42.9399,187.6162,1516,0.0000167,0.99740934,0.0000,05/20.1755/2020,2000,g 13.6,2.0
# From MPC118095
C/2019 K7 (Smith),h,06/16.9074/2020,103.5317,307.9243,27.2929,1.001392,4.474930,2000,6.2,4.0
# From MPC119997
C/2019 K8 (ATLAS),e,93.2236,291.0442,85.3657,1789,0.0000130,0.99821354,0.0000,07/21.2932/2019,2000,g 11.5,4.0
# From MPC118095
C/2019 L1 (PANSTARRS),e,9.9934,254.4071,49.9333,9.833227,0.0319639,0.70605485,9.4514,06/02.0/2020,2000,g 13.5,4.0
# From MPC115886
C/2019 L2 (NEOWISE),e,152.1791,12.5868,18.7440,24.90051,0.0079322,0.93495414,3.3878,06/02.0/2020,2000,g 16.0,4.0
# From MPC119997
C/2019 L3 (ATLAS),h,01/09.8477/2022,48.3663,290.7835,171.6605,1.000518,3.553291,2000,4.5,4.0
# From MPC118095
C/2019 LB7 (Kleyna),e,164.2515,3.4196,336.1206,35.52116,0.0046556,0.93002890,2.0136,06/02.0/2020,2000,g 17.0,4.0
# From MPC118843
P/2019 M2 (ATLAS),e,12.2820,307.5976,332.5427,3.025887,0.1872514,0.64847080,64.6634,06/02.0/2020,2000,g 21.2,4.0
# From MPC118095
C/2019 M3 (ATLAS),h,01/02.9809/2019,99.4437,154.8958,87.9426,1.001873,2.418442,2000,12.2,4.0
# From MPC119997
C/2019 N1 (ATLAS),e,82.4251,13.5750,193.4460,22066,0.0000003,0.99992275,0.0000,12/01.7908/2020,2000,g  7.5,4.0
# From MPEC 2020-AA5
A/2019 O2,e,93.2860,48.3358,129.6634,57.44395,0.0022638,0.83145564,357.6466,06/02.0/2020,2000,g  9.5,2.0
# From MPC118843
A/2019 O3,h,03/07.4661/2021,89.8124,300.3789,60.0242,1.001576,8.818903,2000,10.0,2.0
# From MPC117072
A/2019 O4,e,115.0855,354.9204,61.8132,32.85247,0.0052342,0.88906493,0.5917,06/02.0/2020,2000,g 15.5,2.0
# From MPEC 2020-AA5
A/2019 Q1,h,07/19.7845/2020,155.7199,42.3362,55.9307,1.000376,4.996684,2000,12.5,2.0
# From MPC117072
A/2019 Q2,e,159.0228,188.0240,176.3014,57.96854,0.0022331,0.97831435,0.0000,07/22.3748/2019,2000,g 18.0,2.0
# From MPC117072
C/2019 Q3 (PANSTARRS),h,08/21.0757/2018,65.5295,151.3247,152.6505,1.004523,7.251337,2000,8.5,4.0
# From MPC117072
P/2019 S2 (PANSTARRS),e,10.4732,93.1261,216.7668,4.734728,0.0956669,0.20680734,44.6772,06/02.0/2020,2000,g 13.5,4.0
# From MPC118096
P/2019 S3 (PANSTARRS),e,8.6927,150.1644,212.9665,3.414086,0.1562401,0.47078932,43.8831,06/02.0/2020,2000,g 18.3,4.0
# From MPEC 2020-AA5
A/2019 S4,e,92.0235,63.1672,71.3576,237.5541,0.0002692,0.98551214,0.0000,04/07.9527/2020,2000,g 14.5,2.0
# From MPC118843
A/2019 T1,e,120.8686,6.9496,91.0032,38.22466,0.0041705,0.88798158,359.0570,06/02.0/2020,2000,g 13.0,2.0
# From MPEC 2020-AA5
A/2019 T2,e,111.4657,155.6390,239.3934,2053,0.0000106,0.99871099,0.0000,04/22.3048/2021,2000,g 12.5,2.0
# From MPC119998
C/2019 T3 (ATLAS),e,121.8627,139.5169,112.2573,8252,0.0000013,0.99927943,0.0000,03/02.4668/2021,2000,g  6.8,4.0
# From MPC119998
C/2019 T4 (ATLAS),e,53.6164,199.9732,351.2121,1025,0.0000300,0.99586175,0.0000,06/09.3587/2022,2000,g  5.0,4.0
# From MPC119998
P/2019 T5 (ATLAS),e,33.4228,247.6953,189.6105,8.013603,0.0434473,0.80923007,13.2893,06/02.0/2020,2000,g 15.0,4.0
# From MPC119998
P/2019 T6 (PANSTARRS),e,18.6963,71.3104,328.9064,5.433129,0.0778268,0.62234589,16.1290,06/02.0/2020,2000,g 15.5,4.0
# From MPC118096
P/2019 U4 (PANSTARRS),e,11.6906,200.0337,180.9579,3.520144,0.1492325,0.47531925,38.4489,06/02.0/2020,2000,g 19.0,4.0
# From MPC118844
A/2019 U5,h,03/30.4378/2023,113.5266,2.6968,181.6175,1.000419,3.620951,2000,10.0,2.0
# From MPEC 2020-AA5
A/2019 U6,e,61.0016,235.7059,329.6604,433.0350,0.0001094,0.99788873,0.0000,06/18.8229/2020,2000,g 14.5,2.0
# From MPC119998
C/2019 V1 (Borisov),e,61.8639,83.2060,51.1980,2401,0.0000084,0.99870979,0.0000,07/16.5693/2020,2000,g 11.0,4.0
# From MPC119998
P/2019 V2 (Groeller),e,11.8029,189.1672,336.3648,7.517230,0.0478209,0.33266403,353.1607,06/02.0/2020,2000,g 10.0,4.0
# From MPC119998
P/2019 W1 (PANSTARRS),e,23.4601,35.4163,18.7227,4.550402,0.1015382,0.26611484,39.7183,06/02.0/2020,2000,g 12.9,4.0
# From MPC119998
P/2019 X1 (Pruyne),e,10.2448,43.7152,36.6250,6.177379,0.0641945,0.30337377,20.4142,06/02.0/2020,2000,g 10.4,4.0
# From MPC xxxxx
C/2019 Y1 (ATLAS),e,73.3484,31.3659,57.4979,232.5261,0.0002780,0.99639688,0.0000,03/15.5621/2020,2000,g 14.5,4.0
# From MPC119999
P/2019 Y2 (Fuls),e,4.9020,81.0806,91.7276,3.528627,0.1486947,0.39613767,18.3434,06/02.0/2020,2000,g 13.2,4.0
# From MPEC 2020-C98
P/2019 Y3 (Catalina),e,24.6356,139.3794,2.2820,2.998440,0.1898284,0.69579333,32.5625,06/02.0/2020,2000,g 18.5,4.0
# From MPEC 2020-HN5
C/2019 Y4 (ATLAS),e,45.3801,120.5684,177.4114,323.8609,0.0001691,0.99921928,0.0000,05/31.0173/2020,2000,g 12.0,4.0
# From MPEC 2020-HN5
C/2019 Y4-A (ATLAS),h,05/31.0498/2020,46.2387,121.2272,177.0816,1.003866,0.249299,2000,12.0,6.0
# From MPEC 2020-HN5
C/2019 Y4-B (ATLAS),e,45.3119,120.5318,177.4349,184.7636,0.0003924,0.99862972,0.0000,05/31.0206/2020,2000,g 12.0,6.0
# From MPEC 2020-HN5
C/2019 Y4-C (ATLAS),e,43.9003,119.6341,178.0585,20.04209,0.0109847,0.98705834,0.0000,05/31.0496/2020,2000,g 12.5,6.0
# From MPEC 2020-HN5
C/2019 Y4-D (ATLAS),e,45.3859,121.0038,177.5802,31.96220,0.0054544,0.99210474,0.0000,05/31.1548/2020,2000,g 14.0,6.0
# From MPEC 2020-HN5
A/2019 Y5,e,82.8350,51.7768,303.5018,802.6178,0.0000433,0.99387693,0.0000,08/18.1780/2019,2000,g 14.0,2.0
# From MPEC 2020-HN5
A/2020 A1,e,149.0483,119.2788,302.7144,25.96401,0.0074498,0.93563764,1.3575,06/02.0/2020,2000,g 18.0,2.0
# From MPEC 2020-HN5
C/2020 A2 (Iwamoto),e,120.7506,286.3790,68.2120,1127,0.0000260,0.99913233,0.0000,01/08.3241/2020,2000,g 13.5,4.0
# From MPEC 2020-HN5
C/2020 A3 (ATLAS),h,06/29.6337/2019,146.7026,120.7808,268.4755,1.000297,5.768767,2000,8.0,4.0
# From MPEC 2020-HN5
A/2020 B1,e,18.5124,310.0347,154.7851,52.10374,0.0026206,0.96645849,0.4168,06/02.0/2020,2000,g 21.0,2.0
# From MPEC 2020-HN5
C/2020 B2 (Lemmon),e,55.7380,354.3208,143.7575,69.57981,0.0016982,0.96020160,0.2162,06/02.0/2020,2000,g 10.0,4.0
# From MPEC 2020-HN5
C/2020 B3 (Rankin),e,20.7033,185.8247,325.0901,1780,0.0000131,0.99812053,0.0000,10/19.8685/2019,2000,g 13.0,4.0
# From MPEC 2020-HN5
C/2020 F2 (ATLAS),h,07/16.8017/2022,163.5732,250.2491,48.3731,1.001871,8.817023,2000,4.5,4.0
# From MPEC 2020-HN5
C/2020 F3 (NEOWISE),e,128.9369,61.0138,37.2653,384.7295,0.0001306,0.99923368,0.0000,07/03.6862/2020,2000,g 12.5,3.2
# From MPEC 2020-HN5
C/2020 F5 (MASTER),h,03/24.7898/2021,51.7221,350.7889,311.1566,1.011807,4.321602,2000,6.5,3.2
# From MPEC 2020-HN5
C/2020 F6 (PANSTARRS),e,174.5813,207.8802,344.5935,378.0227,0.0001341,0.99071215,0.0000,04/11.5752/2020,2000,g 14.5,2.8
# From MPEC 2020-HN5
A/2020 F7,e,93.9455,321.8864,228.0022,795.3784,0.0000439,0.99329759,0.0000,11/14.1874/2021,2000,g 12.0,2.0
# From MPC xxxxx
C/2020 F8 (SWAN),e,110.7969,260.0085,68.2240,271.9651,0.0002198,0.99841742,0.0000,05/27.5655/2020,2000,g 10.0,4.0
# From MPEC 2020-HN5
P/2020 G1 (Pimentel),e,18.4673,240.1147,207.6290,3.591448,0.1448104,0.85918542,11.0925,06/02.0/2020,2000,g 17.0,4.0
# From MPEC 2020-HN5
C/2020 H2 (Pruyne),h,04/27.6343/2020,125.0448,277.7005,26.7972,1.001868,0.833772,2000,18.0,4.0
# From MPEC 2020-HM1
C/2020 H3 (Wierzchos),p,06/05.7162/2020,62.5292,30.4456,2.300288,270.6227,2000,13.5,4.0
# From MPC xxxxx
C/2020 H4 (Leonard),e,84.5607,307.7645,117.4815,60.83621,0.0020771,0.98475471,0.0000,08/29.2747/2020,2000,g 14.5,4.0
# From MPC xxxxx
C/2020 H5 (Robinson),e,69.9504,210.9167,317.5989,155.6425,0.0005076,0.93962274,359.9996,06/15.0/2020,2000,g  5.0,4.0
# From MPC xxxxx
C/2020 H6 (ATLAS),p,10/01.2940/2021,79.8308,20.5303,4.689084,213.8053,2000,7.0,4.0
# From MPEC 2020-FB7
C/2020 H7 (Lemmon),e,135.9235,323.5194,82.6780,1405,0.0000187,0.99685380,0.0000,06/02.9510/2020,2000,g 11.0,4.0
# From MPEC 2020-FB7
C/2020 H8 (PANSTARRS),p,06/06.7207/2020,99.7116,129.2192,4.678446,68.3225,2000,10.5,4.0
# From MPEC 2020-J37
C/2020 J1 (SONEAR),p,04/15.7308/2021,142.1690,344.4493,3.256464,227.8566,2000,7.0,4.0
# From MPEC 2020-FB7
C/2020 K1 (PANSTARRS),p,05/08.6840/2023,89.6421,213.8786,3.078872,94.4049,2000,5.5,4.0
